IRIDIUM 150             
1 43257U 18030J   24219.53299881  .00000240  00000+0  78688-4 0  9992
2 43257  86.3969 214.4818 0002191  82.1166 278.0279 14.34220244332761
IRIDIUM 143             
1 43258U 18030K   24219.93258478  .00000007  00000+0 -46825-5 0  9995
2 43258  86.3978 214.3809 0001954  83.1812 276.9606 14.34217721332730
IRIDIUM 161             
1 43478U 18047C   24219.86542534  .00000707  00000+0  20415-3 0  9999
2 43478  86.4511  12.3531 0001987  91.4636 268.6792 14.43285405327156
IRIDIUM 152             
1 43479U 18047D   24219.69599751  .00000001  00000+0 -68739-5 0  9995
2 43479  86.3980  12.2838 0002066  90.6503 269.4930 14.34217748325097
IRIDIUM 147             
1 43480U 18047E   24219.91163730  .00000505  00000+0  17340-3 0  9994
2 43480  86.3988  12.1865 0002224  93.2117 266.9333 14.34222418325125
IRIDIUM 110             
1 43481U 18047F   24219.91798819 -.00000005  00000+0 -89743-5 0  9992
2 43481  86.3986  12.2583 0002412  96.7942 263.3529 14.34219072325114
IRIDIUM 162             
1 43482U 18047G   24219.85912618  .00000780  00000+0  22572-3 0  9994
2 43482  86.4511  12.2551 0002235  89.5807 270.5650 14.43297609327140
IRIDIUM 160             
1 43569U 18061A   24219.30567595  .00000138  00000+0  42232-4 0  9999
2 43569  86.4012 340.9063 0002252 104.3293 255.8153 14.34218667315929
